
# Worst residual: 136.09 km
# MJD 60816.000000 (2025 May 21  0:00)
C1AUGE1 = ZTF0Edd = 'Multijunk'
1 89983U 00000AAQ 25141.49919926  .00000000  00000-0  00000-0 0 26112
2 89983 023.4449 338.4060 7172053 060.5541 316.6366 00.35601468    09

# Worst residual: 91.70 km
# MJD 60817.000000 (2025 May 22  0:00)
C1AUGE1 = ZTF0Edd = 'Multijunk'
1 89983U 00000AAQ 25142.49919926  .00000000  00000-0  00000-0 0 26113
2 89983 023.4586 338.4360 7143042 061.7910 084.4833 00.35539040    08

# Worst residual: 85.75 km
# MJD 60818.000000 (2025 May 23  0:00)
C1AUGE1 = ZTF0Edd = 'Multijunk'
1 89983U 00000AAQ 25143.49919926  .00000000  00000-0  00000-0 0 26114
2 89983 023.5081 338.6101 7097760 062.4231 209.0090 00.35155128    04

# Worst residual: 168.94 km
# MJD 60819.000000 (2025 May 24  0:00)
C1AUGE1 = ZTF0Edd = 'Multijunk'
1 89983U 00000AAQ 25144.49919926  .00000000  00000-0  00000-0 0 26115
2 89983 023.5103 338.7711 7101249 063.1947 334.3388 00.35798402    07

# Worst residual: 84.03 km
# MJD 60820.000000 (2025 May 25  0:00)
C1AUGE1 = ZTF0Edd = 'Multijunk'
1 89983U 00000AAQ 25145.49919926  .00000000  00000-0  00000-0 0 26116
2 89983 023.5239 338.7819 7063696 064.3753 101.8857 00.35377386    09

# Worst residual: 81.81 km
# MJD 60821.000000 (2025 May 26  0:00)
C1AUGE1 = ZTF0Edd = 'Multijunk'
1 89983U 00000AAQ 25146.49919926  .00000000  00000-0  00000-0 0 26117
2 89983 023.5794 339.0107 7024372 064.8798 226.1280 00.35132053    02

# Worst residual: 122.57 km
# MJD 60822.000000 (2025 May 27  0:00)
C1AUGE1 = ZTF0Edd = 'Multijunk'
1 89983U 00000AAQ 25147.49919926  .00000000  00000-0  00000-0 0 26118
2 89983 023.5729 339.1493 7019162 065.7682 351.8119 00.35984114    02

# Worst residual: 82.76 km
# MJD 60823.000000 (2025 May 28  0:00)
C1AUGE1 = ZTF0Edd = 'Multijunk'
1 89983U 00000AAQ 25148.49919926  .00000000  00000-0  00000-0 0 26119
2 89983 023.6084 339.2087 6982342 066.8999 118.7841 00.35238990    04

# Worst residual: 79.72 km
# MJD 60824.000000 (2025 May 29  0:00)
C1AUGE1 = ZTF0Edd = 'Multijunk'
1 89983U 00000AAQ 25149.49919926  .00000000  00000-0  00000-0 0 26110
2 89983 023.6483 339.4469 6950063 067.3414 242.7973 00.35111242    00

# Worst residual: 85.24 km
# MJD 60825.000000 (2025 May 30  0:00)
C1AUGE1 = ZTF0Edd = 'Multijunk'
1 89983U 00000AAQ 25150.49919926  .00000000  00000-0  00000-0 0 26112
2 89983 023.6351 339.5577 6935133 068.2656 008.9575 00.36071766    01

# Worst residual: 90.09 km
# MJD 60826.000000 (2025 May 31  0:00)
C1AUGE1 = ZTF0Edd = 'Multijunk'
1 89983U 00000AAQ 25151.49919926  .00000000  00000-0  00000-0 0 26113
2 89983 023.6805 339.6545 6902450 069.4157 135.0776 00.35134199    00

# Worst residual: 70.70 km
# MJD 60827.000000 (2025 Jun  1  0:00)
C1AUGE1 = ZTF0Edd = 'Multijunk'
1 89983U 00000AAQ 25152.49919926  .00000000  00000-0  00000-0 0 26114
2 89983 023.7137 339.9288 6871993 069.7875 258.9681 00.35089769    05

# Worst residual: 129.44 km
# MJD 60828.000000 (2025 Jun  2  0:00)
C1AUGE1 = ZTF0Edd = 'Multijunk'
1 89983U 00000AAQ 25153.49919926  .00000000  00000-0  00000-0 0 26115
2 89983 023.6983 340.0159 6859537 070.7219 025.5920 00.35976874    03

# Worst residual: 92.31 km
# MJD 60829.000000 (2025 Jun  3  0:00)
C1AUGE1 = ZTF0Edd = 'Multijunk'
1 89983U 00000AAQ 25154.49919926  .00000000  00000-0  00000-0 0 26116
2 89983 023.7490 340.1521 6822987 071.8987 150.7355 00.35028235    06

# Worst residual: 56.04 km
# MJD 60830.000000 (2025 Jun  4  0:00)
C1AUGE1 = ZTF0Edd = 'Multijunk'
1 89983U 00000AAQ 25155.49919926  .00000000  00000-0  00000-0 0 26117
2 89983 023.7696 340.4342 6799213 072.2164 274.6271 00.35070358    01

# Worst residual: 172.54 km
# MJD 60831.000000 (2025 Jun  5  0:00)
C1AUGE1 = ZTF0Edd = 'Multijunk'
1 89983U 00000AAQ 25156.49919926  .00000000  00000-0  00000-0 0 26118
2 89983 023.7570 340.4956 6796218 073.2667 041.4215 00.35749377    06

# Worst residual: 95.12 km
# MJD 60832.000000 (2025 Jun  6  0:00)
C1AUGE1 = ZTF0Edd = 'Multijunk'
1 89983U 00000AAQ 25157.49919926  .00000000  00000-0  00000-0 0 26119
2 89983 023.8094 340.6725 6748808 074.4064 165.6871 00.34912148    04

# Worst residual: 50.45 km
# MJD 60833.000000 (2025 Jun  7  0:00)
C1AUGE1 = ZTF0Edd = 'Multijunk'
1 89983U 00000AAQ 25158.49919926  .00000000  00000-0  00000-0 0 26110
2 89983 023.8161 340.9394 6738511 074.7589 289.4705 00.35059804    02

# Worst residual: 156.11 km
# MJD 60834.000000 (2025 Jun  8  0:00)
C1AUGE1 = ZTF0Edd = 'Multijunk'
1 89983U 00000AAQ 25159.49919926  .00000000  00000-0  00000-0 0 26111
2 89983 023.8139 340.9852 6736798 076.0578 056.0848 00.35467607    04

# Worst residual: 104.33 km
# MJD 60835.000000 (2025 Jun  9  0:00)
C1AUGE1 = ZTF0Edd = 'Multijunk'
1 89983U 00000AAQ 25160.49919926  .00000000  00000-0  00000-0 0 26113
2 89983 023.8677 341.2313 6676350 077.0109 179.8006 00.34804415    06

# Worst residual: 71.52 km
# MJD 60836.000000 (2025 Jun 10  0:00)
C1AUGE1 = ZTF0Edd = 'Multijunk'
1 89983U 00000AAQ 25161.49919926  .00000000  00000-0  00000-0 0 26114
2 89983 023.8605 341.5192 6672241 077.4515 303.3137 00.35072766    01

# Worst residual: 119.33 km
# MJD 60837.000000 (2025 Jun 11  0:00)
C1AUGE1 = ZTF0Edd = 'Multijunk'
1 89983U 00000AAQ 25162.49919926  .00000000  00000-0  00000-0 0 26115
2 89983 023.8640 341.5506 6657444 078.9548 069.6343 00.35231748    07

# Worst residual: 98.28 km
# MJD 60838.000000 (2025 Jun 12  0:00)
C1AUGE1 = ZTF0Edd = 'Multijunk'
1 89983U 00000AAQ 25163.49919926  .00000000  00000-0  00000-0 0 26116
2 89983 023.9198 341.8856 6598517 079.6037 193.1529 00.34744214    08

# Worst residual: 137.83 km
# MJD 60839.000000 (2025 Jun 13  0:00)
C1AUGE1 = ZTF0Edd = 'Multijunk'
1 89983U 00000AAQ 25164.49919926  .00000000  00000-0  00000-0 0 26117
2 89983 023.8960 342.1308 6595679 080.2296 316.6159 00.35174342    02

# Worst residual: 102.50 km
# MJD 60840.000000 (2025 Jun 14  0:00)
C1AUGE1 = ZTF0Edd = 'Multijunk'
1 89983U 00000AAQ 25165.49919926  .00000000  00000-0  00000-0 0 26118
2 89983 023.9047 342.1864 6565906 081.6524 082.7604 00.35068288    02

# Worst residual: 87.88 km
# MJD 60841.000000 (2025 Jun 15  0:00)
C1AUGE1 = ZTF0Edd = 'Multijunk'
1 89983U 00000AAQ 25166.49919926  .00000000  00000-0  00000-0 0 26119
2 89983 023.9501 342.5413 6522349 082.1631 205.8991 00.34702520    00

# Worst residual: 149.97 km
# MJD 60842.000000 (2025 Jun 16  0:00)
C1AUGE1 = ZTF0Edd = 'Multijunk'
1 89983U 00000AAQ 25167.49919926  .00000000  00000-0  00000-0 0 26110
2 89983 023.9180 342.7562 6521729 082.9936 329.4570 00.35327413    08

# Worst residual: 104.97 km
# MJD 60843.000000 (2025 Jun 17  0:00)
C1AUGE1 = ZTF0Edd = 'Multijunk'
1 89983U 00000AAQ 25168.49919926  .00000000  00000-0  00000-0 0 26111
2 89983 023.9389 342.8129 6490428 084.3011 095.3799 00.34941286    01
